NORAD_CAT_ID,OBJECT_NAME,OBJECT_TYPE,EPOCH,MEAN_MOTION,ECCENTRICITY,INCLINATION,RA_OF_ASC_NODE,ARG_OF_PERICENTER,MEAN_ANOMALY,BSTAR,MEAN_MOTION_DOT,MEAN_MOTION_DDOT,TLE_LINE0,TLE_LINE1,TLE_LINE2,SEMIMAJOR_AXIS,PERIOD,APOGEE,PERIGEE,DECAYED
52357.0,STARLINK-3821,PAYLOAD,2022-07-02 14:00:01,15.39340391,0.000156,53.2176,124.0838,48.5386,112.4525,-0.019588,-0.00717603,0.0,0 STARLINK-3821,1 52357U 22045AC  22183.58334491 -.00717603  00000-0 -19588-1 0  9996,2 52357  53.2176 124.0838 0001560  48.5386 112.4525 15.39340391  1302,6826.196,93.547,449.126,446.996,0.0
52357.0,STARLINK-3821,PAYLOAD,2022-07-02 22:00:00,15.38829766,0.0001561,53.2178,122.5179,52.2837,156.64,-0.019882,-0.00716313,0.0,0 STARLINK-3821,1 52357U 22045AC  22183.91667824 -.00716313  00000-0 -19882-1 0  9996,2 52357  53.2178 122.5179 0001561  52.2837 156.6400 15.38829766  1308,6827.706,93.578,450.636,448.505,0.0
52357.0,STARLINK-3821,PAYLOAD,2022-07-03 00:00:00,15.38703015,0.0001462,53.2177,122.1269,50.1638,260.6468,-0.02,-0.00717458,0.0,0 STARLINK-3821,1 52357U 22045AC  22184.00001157 -.00717458  00000-0 -20000-1 0  9993,2 52357  53.2177 122.1269 0001462  50.1638 260.6468 15.38703015 12602,6828.081,93.585,450.944,448.947,0.0
52357.0,STARLINK-3821,PAYLOAD,2022-07-03 14:00:01,15.37811548,0.000136,53.2176,119.3888,54.9535,247.997,-0.020657,-0.00719493,0.0,0 STARLINK-3821,1 52357U 22045AC  22184.58334491 -.00719493  00000-0 -20657-1 0  9995,2 52357  53.2176 119.3888 0001360  54.9535 247.9970 15.37811548  1302,6830.719,93.64,453.513,451.655,0.0
52357.0,STARLINK-3821,PAYLOAD,2022-07-03 22:00:00,15.37301848,0.0001534,53.2178,117.8265,43.4831,305.5611,-0.021005,-0.00719561,0.0,0 STARLINK-3821,1 52357U 22045AC  22184.91667824 -.00719561  00000-0 -21005-1 0  9995,2 52357  53.2178 117.8265 0001534  43.4831 305.5611 15.37301848  1301,6832.229,93.671,455.142,453.046,0.0
52357.0,STARLINK-3821,PAYLOAD,2022-07-04 06:00:00,15.36789062,0.0001485,53.2174,116.2667,45.726000000000006,348.8,-0.021208,-0.00714865,0.0,0 STARLINK-3821,1 52357U 22045AC  22185.25001157 -.00714865  00000-0 -21208-1 0  9991,2 52357  53.2174 116.2667 0001485  45.7260 348.8000 15.36789062 12796,6833.749,93.702,456.628,454.599,0.0
52357.0,STARLINK-3821,PAYLOAD,2022-07-04 14:00:01,15.36279738,0.0001446,53.2175,114.7047,48.1828,31.213,-0.021612,-0.00716418,0.0,0 STARLINK-3821,1 52357U 22045AC  22185.58334491 -.00716418  00000-0 -21612-1 0  9992,2 52357  53.2175 114.7047 0001446  48.1828  31.2130 15.36279738  1302,6835.259,93.733,458.112,456.136,0.0
52357.0,STARLINK-3821,PAYLOAD,2022-07-04 22:00:00,15.35770947,0.000166,53.2176,113.1461,43.4862,80.1647,-0.022029,-0.00718217,0.0,0 STARLINK-3821,1 52357U 22045AC  22185.91667824 -.00718217  00000-0 -22029-1 0  9990,2 52357  53.2176 113.1461 0001660  43.4862  80.1647 15.35770947  1303,6836.769,93.764,459.768,457.499,0.0
52357.0,STARLINK-3821,PAYLOAD,2022-07-05 08:00:01,15.35134947,0.0001409,53.2171,111.2002,57.2273,210.8805,-0.022546,-0.0071999,0.0,0 STARLINK-3821,1 52357U 22045AC  22186.33334491 -.00719990  00000-0 -22546-1 0  9991,2 52357  53.2171 111.2002 0001409  57.2273 210.8805 15.35134947 12964,6838.656999999997,93.803,461.485,459.5580000000001,0.0
52357.0,STARLINK-3821,PAYLOAD,2022-07-05 14:00:01,15.34749389,0.0001483,53.2175,110.0314,55.1242,155.201,-0.022652,-0.00714901,0.0,0 STARLINK-3821,1 52357U 22045AC  22186.58334491 -.00714901  00000-0 -22652-1 0  9993,2 52357  53.2175 110.0314 0001483  55.1242 155.2010 15.34749389  1303,6839.802,93.826,462.681,460.653,0.0
52357.0,STARLINK-3821,PAYLOAD,2022-07-05 22:00:00,15.34239952,0.0001440999999999,53.2175,108.4768,59.9234,192.8187,-0.023056,-0.00715806,0.0,0 STARLINK-3821,1 52357U 22045AC  22186.91667824 -.00715806  00000-0 -23056-1 0  9993,2 52357  53.2175 108.4768 0001441  59.9234 192.8187 15.34239952  1306,6841.316,93.858,464.167,462.195,0.0
52357.0,STARLINK-3821,PAYLOAD,2022-07-06 14:00:01,15.3321914,0.0001349,53.2174,105.3691,53.2429,282.4969,-0.02378,-0.00714743,0.0,0 STARLINK-3821,1 52357U 22045AC  22187.58334491 -.00714743  00000-0 -23780-1 0  9991,2 52357  53.2174 105.3691 0001349  53.2429 282.4969 15.33219140 13152,6844.352,93.92,467.141,465.294,0.0
52357.0,STARLINK-3821,PAYLOAD,2022-07-06 18:48:14,15.34604997,0.0002117,53.2191,104.4264,29.6499,330.4624,-0.0053085,-0.0017675,0.0,0 STARLINK-3821,1 52357U 22045AC  22187.78349986 -.00176750  00000-0 -53085-2 0  9990,2 52357  53.2191 104.4264 0002117  29.6499 330.4624 15.34604997 13189,6840.231,93.835,463.544,460.648,0.0
52357.0,STARLINK-3821,PAYLOAD,2022-07-07 06:00:02,15.32199596,0.0001396999999999,53.2172,102.2687,51.3816,4.966,-0.024542,-0.00714276,0.0,0 STARLINK-3821,1 52357U 22045AC  22188.25002315 -.00714276  00000-0 -24542-1 0  9991,2 52357  53.2172 102.2687 0001397  51.3816   4.9660 15.32199596 13250,6847.388000000001,93.983,470.21,468.297,0.0
52357.0,STARLINK-3821,PAYLOAD,2022-07-07 14:00:01,15.3168922,0.0001513,53.2174,100.7175,46.712,48.927,-0.024955,-0.00714701,0.0,0 STARLINK-3821,1 52357U 22045AC  22188.58334491 -.00714701  00000-0 -24955-1 0  9991,2 52357  53.2174 100.7175 0001513  46.7120  48.9270 15.31689220  1308,6848.909000000002,94.014,471.81,469.73800000000006,0.0
52357.0,STARLINK-3821,PAYLOAD,2022-07-07 21:25:39,15.32465376,0.0001801,53.2183,99.2728,45.3713,314.7436,-0.0060693,-0.00188511,0.0,0 STARLINK-3821,1 52357U 22045AC  22188.89281369 -.00188511  00000-0 -60693-2 0  9994,2 52357  53.2183  99.2728 0001801  45.3713 314.7436 15.32465376 13358,6846.596,93.966,469.694,467.228,0.0
52357.0,STARLINK-3821,PAYLOAD,2022-07-08 05:15:40,15.32064754,0.0001578,53.2187,97.7608,6.9304,353.172,-0.0069748,-0.00213175,0.0,0 STARLINK-3821,1 52357U 22045AC  22189.21922044 -.00213175  00000-0 -69748-2 0  9998,2 52357  53.2187  97.7608 0001578   6.9304 353.1720 15.32064754 13406,6847.79,93.991,470.735,468.574,0.0
52357.0,STARLINK-3821,PAYLOAD,2022-07-08 14:00:01,15.3015924,0.0001571,53.2173,96.0767,50.2732,159.75,-0.026153,-0.00714064,0.0,0 STARLINK-3821,1 52357U 22045AC  22189.58334491 -.00714064  00000-0 -26153-1 0  9996,2 52357  53.2173  96.0767 0001571  50.2732 159.7500 15.30159240  1304,6853.474,94.108,476.415,474.262,0.0
52357.0,STARLINK-3821,PAYLOAD,2022-07-08 22:00:01,15.29649095,0.0001684,53.2174,94.5334,46.3421,200.6464,-0.026551,-0.00713581,0.0,0 STARLINK-3821,1 52357U 22045AC  22189.91668981 -.00713581  00000-0 -26551-1 0  9992,2 52357  53.2174  94.5334 0001684  46.3421 200.6464 15.29649095  1309,6854.996999999999,94.139,478.017,475.708,0.0
52357.0,STARLINK-3821,PAYLOAD,2022-07-09 14:00:01,15.2862826,0.0001456,53.2173,91.4469,48.5594,270.3333,-0.027353,-0.00712349,0.0,0 STARLINK-3821,1 52357U 22045AC  22190.58334491 -.00712349  00000-0 -27353-1 0  9995,2 52357  53.2173  91.4469 0001456  48.5594 270.3333 15.28628260  1304,6858.049,94.202,480.913,478.915,0.0
52357.0,STARLINK-3821,PAYLOAD,2022-07-09 16:00:00,15.28501838,0.0001541,53.2172,91.0612,46.0442,11.6717,-0.02755,-0.00722778,0.0,0 STARLINK-3821,1 52357U 22045AC  22190.66667824 -.00722778  00000-0 -27550-1 0  9999,2 52357  53.2172  91.0612 0001541  46.0442  11.6717 15.28501838 13620,6858.427,94.21,481.349,479.235,0.0
52357.0,STARLINK-3821,PAYLOAD,2022-07-09 20:00:01,15.28247394,0.0001730999999999,53.2175,90.2918,43.6498,211.5972,-0.027772,-0.00722934,0.0,0 STARLINK-3821,1 52357U 22045AC  22190.83334491 -.00722934  00000-0 -27772-1 0  9999,2 52357  53.2175  90.2918 0001731  43.6498 211.5972 15.28247394  1308,6859.188,94.226,482.241,479.866,0.0
52357.0,STARLINK-3821,PAYLOAD,2022-07-10 14:00:01,15.2709915,0.0001579,53.2173,86.8277,42.5344,19.7121,-0.028742,-0.00722344,0.0,0 STARLINK-3821,1 52357U 22045AC  22191.58334491 -.00722344  00000-0 -28742-1 0  9995,2 52357  53.2173  86.8277 0001579  42.5344  19.7121 15.27099150  1301,6862.626,94.296,485.575,483.408,0.0
52357.0,STARLINK-3821,PAYLOAD,2022-07-10 22:00:00,15.26590577,0.0001758,53.2174,85.2919,40.573,54.8976,-0.029273,-0.00724259,0.0,0 STARLINK-3821,1 52357U 22045AC  22191.91667824 -.00724259  00000-0 -29273-1 0  9998,2 52357  53.2174  85.2919 0001758  40.5730  54.8976 15.26590577 13819,6864.15,94.328,487.222,484.809,0.0
52357.0,STARLINK-3821,PAYLOAD,2022-07-11 14:00:01,15.25571015,0.0001768,53.2173,82.2195,41.6416,118.443,-0.030244,-0.00725409,0.0,0 STARLINK-3821,1 52357U 22045AC  22192.58334491 -.00725409  00000-0 -30244-1 0  9991,2 52357  53.2173  82.2195 0001768  41.6416 118.4430 15.25571015  1303,6867.208000000001,94.391,490.287,487.859,0.0
52357.0,STARLINK-3821,PAYLOAD,2022-07-11 22:00:00,15.25058784,0.0001891,53.2174,80.6873,40.5782,150.8936,-0.03052,-0.0072111,0.0,0 STARLINK-3821,1 52357U 22045AC  22192.91667824 -.00721110  00000-0 -30520-1 0  9999,2 52357  53.2174  80.6873 0001891  40.5782 150.8936 15.25058784  1304,6868.746,94.423,491.91,489.312,0.0
52357.0,STARLINK-3821,PAYLOAD,2022-07-12 14:00:01,15.24040052,0.0001668,53.2173,77.6219,45.7299,206.6789,-0.031583,-0.00723517,0.0,0 STARLINK-3821,1 52357U 22045AC  22193.58334491 -.00723517  00000-0 -31583-1 0  9997,2 52357  53.2173  77.6219 0001668  45.7299 206.6789 15.24040052  1309,6871.806,94.486,494.818,492.525,0.0
52357.0,STARLINK-3821,PAYLOAD,2022-07-12 22:00:00,15.23529227,0.0001906,53.2174,76.0937,37.0094,244.9474,-0.031965,-0.00721343,0.0,0 STARLINK-3821,1 52357U 22045AC  22193.91667824 -.00721343  00000-0 -31965-1 0  9992,2 52357  53.2174  76.0937 0001906  37.0094 244.9474 15.23529227 14116,6873.342,94.517,496.517,493.897,0.0
52357.0,STARLINK-3821,PAYLOAD,2022-07-13 14:00:01,15.22508413,0.0001589,53.2173,73.0354,44.1782,295.0397,-0.032914,-0.00720527,0.0,0 STARLINK-3821,1 52357U 22045AC  22194.58334491 -.00720527  00000-0 -32914-1 0  9995,2 52357  53.2173  73.0354 0001589  44.1782 295.0397 15.22508413  1306,6876.4140000000025,94.581,499.372,497.187,0.0
